{"fetched_at":"2026-07-11T06:35:44.467Z","source":"https://celestrak.org/NORAD/elements/gp.php?NAME=RCM&FORMAT=JSON","constellation":"rcm","records":[{"OBJECT_NAME":"RCM-1","OBJECT_ID":"2019-033A","EPOCH":"2026-07-10T21:19:15.357216","CLASSIFICATION_TYPE":"U","MEAN_MOTION":14.92590194,"ECCENTRICITY":0.0001531,"INCLINATION":97.7601,"RA_OF_ASC_NODE":198.9999,"ARG_OF_PERICENTER":92.0244,"MEAN_ANOMALY":25.7966,"EPHEMERIS_TYPE":0,"NORAD_CAT_ID":44322,"ELEMENT_SET_NO":999,"REV_AT_EPOCH":38561,"BSTAR":0.000023886,"MEAN_MOTION_DOT":0.0000019,"MEAN_MOTION_DDOT":0},{"OBJECT_NAME":"RCM-3","OBJECT_ID":"2019-033B","EPOCH":"2026-07-10T19:43:43.500864","CLASSIFICATION_TYPE":"U","MEAN_MOTION":14.92588118,"ECCENTRICITY":0.000153,"INCLINATION":97.7602,"RA_OF_ASC_NODE":199.0289,"ARG_OF_PERICENTER":88.6237,"MEAN_ANOMALY":271.5157,"EPHEMERIS_TYPE":0,"NORAD_CAT_ID":44323,"ELEMENT_SET_NO":999,"REV_AT_EPOCH":38562,"BSTAR":0.000011157,"MEAN_MOTION_DOT":5.9e-7,"MEAN_MOTION_DDOT":0},{"OBJECT_NAME":"RCM-2","OBJECT_ID":"2019-033C","EPOCH":"2026-07-10T20:15:42.070752","CLASSIFICATION_TYPE":"U","MEAN_MOTION":14.92588195,"ECCENTRICITY":0.0001523,"INCLINATION":97.7601,"RA_OF_ASC_NODE":199.001,"ARG_OF_PERICENTER":91.61,"MEAN_ANOMALY":268.5294,"EPHEMERIS_TYPE":0,"NORAD_CAT_ID":44324,"ELEMENT_SET_NO":999,"REV_AT_EPOCH":38561,"BSTAR":0.000012197,"MEAN_MOTION_DOT":7e-7,"MEAN_MOTION_DDOT":0}]}
