RCM-1                   
1 44322U 19033A   26191.88837219  .00000190  00000+0  23886-4 0  9996
2 44322  97.7601 198.9999 0001531  92.0244  25.7966 14.92590194385614
RCM-3                   
1 44323U 19033B   26191.82203126  .00000059  00000+0  11157-4 0  9997
2 44323  97.7602 199.0289 0001530  88.6237 271.5157 14.92588118385629
RCM-2                   
1 44324U 19033C   26191.84423693  .00000070  00000+0  12197-4 0  9991
2 44324  97.7601 199.0010 0001523  91.6100 268.5294 14.92588195385618
